[{"OBJECT_NAME":"STARLINK-4486","OBJECT_ID":"2022-101P","EPOCH":"2026-03-09T06:34:01.118784","MEAN_MOTION":15.08842573,"ECCENTRICITY":0.00013592,"INCLINATION":53.2173,"RA_OF_ASC_NODE":66.3436,"ARG_OF_PERICENTER":86.8873,"MEAN_ANOMALY":273.2275,"EPHEMERIS_TYPE":0,"CLASSIFICATION_TYPE":"U","NORAD_CAT_ID":53540,"ELEMENT_SET_NO":999,"REV_AT_EPOCH":19692,"BSTAR":2.2578461e-5,"MEAN_MOTION_DOT":7.1e-7,"MEAN_MOTION_DDOT":0},{"OBJECT_NAME":"OBJECT J","OBJECT_ID":"2017-042J","EPOCH":"2026-03-09T23:17:19.167936","MEAN_MOTION":15.08203331,"ECCENTRICITY":0.00078186,"INCLINATION":97.4246,"RA_OF_ASC_NODE":235.0467,"ARG_OF_PERICENTER":81.5059,"MEAN_ANOMALY":278.7055,"EPHEMERIS_TYPE":0,"CLASSIFICATION_TYPE":"U","NORAD_CAT_ID":42833,"ELEMENT_SET_NO":999,"REV_AT_EPOCH":47205,"BSTAR":0.00039182004,"MEAN_MOTION_DOT":6.006e-5,"MEAN_MOTION_DDOT":0}]
